IRIDIUM 112             
1 41925U 17003J   25285.10646184 -.00000056  00000+0 -26994-4 0  9990
2 41925  86.4036 191.9334 0002123  87.2494 272.8945 14.34217960457710
IRIDIUM 111             
1 41926U 17003K   25285.30308174  .00000162  00000+0  50846-4 0  9996
2 41926  86.4038 191.9162 0002250  81.3426 278.8025 14.34218628457721
IRIDIUM 113             
1 42803U 17039A   25284.65513028  .00000154  00000+0  48062-4 0  9991
2 42803  86.3945  66.0422 0002174  95.3645 264.7799 14.34217962435566
IRIDIUM 123             
1 42804U 17039B   25285.18498736  .00000017  00000+0 -11297-5 0  9999
2 42804  86.3913  97.3225 0002262  82.1648 277.9804 14.34217414434402
IRIDIUM 120             
1 42805U 17039C   25284.85809204  .00000081  00000+0  21720-4 0  9990
2 42805  86.3936  65.7719 0001883  86.7016 273.4395 14.34217170435587
IRIDIUM 115             
1 42806U 17039D   25285.33015539  .00000618  00000+0  17776-3 0  9996
2 42806  86.4472  65.6691 0002332  75.8840 284.2620 14.43284149438513
IRIDIUM 118             
1 42807U 17039E   25285.28646891  .00000035  00000+0  54825-5 0  9993
2 42807  86.3914  97.2793 0002218  93.8128 266.3322 14.34217628434413
IRIDIUM 117             
1 42808U 17039F   25285.23572825  .00000031  00000+0  40737-5 0  9997
2 42808  86.3911  97.2604 0002272  85.3757 274.7698 14.34217603434430
